CCSDS_OMM_VERS = 2.0
CREATION_DATE  = 
ORIGINATOR     = 

OBJECT_NAME    = ISS (ZARYA)
OBJECT_ID      = 1998-067A
CENTER_NAME    = EARTH
REF_FRAME      = TEME
TIME_SYSTEM    = UTC
MEAN_ELEMENT_THEORY = SGP/SGP4

EPOCH          = 2026-04-04T01:39:43.591392
MEAN_MOTION    = 15.48758130
ECCENTRICITY   = .00062512
INCLINATION    = 51.6326
RA_OF_ASC_NODE = 306.8840
ARG_OF_PERICENTER = 269.7954
MEAN_ANOMALY   = 90.2318

EPHEMERIS_TYPE = 0
CLASSIFICATION_TYPE = U
NORAD_CAT_ID   = 25544
ELEMENT_SET_NO = 999
REV_AT_EPOCH   = 56026
BSTAR          = .22464475E-3
MEAN_MOTION_DOT = .11847E-3
MEAN_MOTION_DDOT = 0

CCSDS_OMM_VERS = 2.0
CREATION_DATE  = 
ORIGINATOR     = 

OBJECT_NAME    = POISK
OBJECT_ID      = 2009-060A
CENTER_NAME    = EARTH
REF_FRAME      = TEME
TIME_SYSTEM    = UTC
MEAN_ELEMENT_THEORY = SGP/SGP4

EPOCH          = 2026-04-04T01:39:43.591392
MEAN_MOTION    = 15.48758130
ECCENTRICITY   = .00062512
INCLINATION    = 51.6326
RA_OF_ASC_NODE = 306.8840
ARG_OF_PERICENTER = 269.7954
MEAN_ANOMALY   = 90.2318

EPHEMERIS_TYPE = 0
CLASSIFICATION_TYPE = U
NORAD_CAT_ID   = 36086
ELEMENT_SET_NO = 999
REV_AT_EPOCH   = 55958
BSTAR          = .22464475E-3
MEAN_MOTION_DOT = .11847E-3
MEAN_MOTION_DDOT = 0

CCSDS_OMM_VERS = 2.0
CREATION_DATE  = 
ORIGINATOR     = 

OBJECT_NAME    = CSS (TIANHE)
OBJECT_ID      = 2021-035A
CENTER_NAME    = EARTH
REF_FRAME      = TEME
TIME_SYSTEM    = UTC
MEAN_ELEMENT_THEORY = SGP/SGP4

EPOCH          = 2026-04-04T04:10:02.386272
MEAN_MOTION    = 15.61988078
ECCENTRICITY   = .00037703
INCLINATION    = 41.4678
RA_OF_ASC_NODE = 52.9483
ARG_OF_PERICENTER = 120.6138
MEAN_ANOMALY   = 239.5073

EPHEMERIS_TYPE = 0
CLASSIFICATION_TYPE = U
NORAD_CAT_ID   = 48274
ELEMENT_SET_NO = 999
REV_AT_EPOCH   = 28159
BSTAR          = .36373884E-3
MEAN_MOTION_DOT = .32464E-3
MEAN_MOTION_DDOT = 0

CCSDS_OMM_VERS = 2.0
CREATION_DATE  = 
ORIGINATOR     = 

OBJECT_NAME    = ISS (NAUKA)
OBJECT_ID      = 2021-066A
CENTER_NAME    = EARTH
REF_FRAME      = TEME
TIME_SYSTEM    = UTC
MEAN_ELEMENT_THEORY = SGP/SGP4

EPOCH          = 2026-04-04T01:39:43.591392
MEAN_MOTION    = 15.48758130
ECCENTRICITY   = .00062512
INCLINATION    = 51.6326
RA_OF_ASC_NODE = 306.8840
ARG_OF_PERICENTER = 269.7954
MEAN_ANOMALY   = 90.2318

EPHEMERIS_TYPE = 0
CLASSIFICATION_TYPE = U
NORAD_CAT_ID   = 49044
ELEMENT_SET_NO = 999
REV_AT_EPOCH   = 55962
BSTAR          = .22464475E-3
MEAN_MOTION_DOT = .11847E-3
MEAN_MOTION_DDOT = 0

CCSDS_OMM_VERS = 2.0
CREATION_DATE  = 
ORIGINATOR     = 

OBJECT_NAME    = FREGAT DEB
OBJECT_ID      = 2011-037PF
CENTER_NAME    = EARTH
REF_FRAME      = TEME
TIME_SYSTEM    = UTC
MEAN_ELEMENT_THEORY = SGP/SGP4

EPOCH          = 2026-04-03T17:46:05.608416
MEAN_MOTION    = 12.40896795
ECCENTRICITY   = .09564813
INCLINATION    = 51.6424
RA_OF_ASC_NODE = 225.5290
ARG_OF_PERICENTER = 116.8395
MEAN_ANOMALY   = 253.3461

EPHEMERIS_TYPE = 0
CLASSIFICATION_TYPE = U
NORAD_CAT_ID   = 49271
ELEMENT_SET_NO = 999
REV_AT_EPOCH   = 21580
BSTAR          = .20895803E-1
MEAN_MOTION_DOT = .14511E-3
MEAN_MOTION_DDOT = 0

CCSDS_OMM_VERS = 2.0
CREATION_DATE  = 
ORIGINATOR     = 

OBJECT_NAME    = CSS (WENTIAN)
OBJECT_ID      = 2022-085A
CENTER_NAME    = EARTH
REF_FRAME      = TEME
TIME_SYSTEM    = UTC
MEAN_ELEMENT_THEORY = SGP/SGP4

EPOCH          = 2026-04-04T04:10:02.386272
MEAN_MOTION    = 15.61988078
ECCENTRICITY   = .00037703
INCLINATION    = 41.4678
RA_OF_ASC_NODE = 52.9483
ARG_OF_PERICENTER = 120.6138
MEAN_ANOMALY   = 239.5073

EPHEMERIS_TYPE = 0
CLASSIFICATION_TYPE = U
NORAD_CAT_ID   = 53239
ELEMENT_SET_NO = 999
REV_AT_EPOCH   = 28115
BSTAR          = .36373884E-3
MEAN_MOTION_DOT = .32464E-3
MEAN_MOTION_DDOT = 0

CCSDS_OMM_VERS = 2.0
CREATION_DATE  = 
ORIGINATOR     = 

OBJECT_NAME    = CSS (MENGTIAN)
OBJECT_ID      = 2022-143A
CENTER_NAME    = EARTH
REF_FRAME      = TEME
TIME_SYSTEM    = UTC
MEAN_ELEMENT_THEORY = SGP/SGP4

EPOCH          = 2026-04-04T04:10:02.386272
MEAN_MOTION    = 15.61988078
ECCENTRICITY   = .00037703
INCLINATION    = 41.4678
RA_OF_ASC_NODE = 52.9483
ARG_OF_PERICENTER = 120.6138
MEAN_ANOMALY   = 239.5073

EPHEMERIS_TYPE = 0
CLASSIFICATION_TYPE = U
NORAD_CAT_ID   = 54216
ELEMENT_SET_NO = 999
REV_AT_EPOCH   = 28115
BSTAR          = .36373884E-3
MEAN_MOTION_DOT = .32464E-3
MEAN_MOTION_DDOT = 0

CCSDS_OMM_VERS = 2.0
CREATION_DATE  = 
ORIGINATOR     = 

OBJECT_NAME    = TIANZHOU-9
OBJECT_ID      = 2025-149A
CENTER_NAME    = EARTH
REF_FRAME      = TEME
TIME_SYSTEM    = UTC
MEAN_ELEMENT_THEORY = SGP/SGP4

EPOCH          = 2026-04-04T04:10:02.386272
MEAN_MOTION    = 15.61988078
ECCENTRICITY   = .00037703
INCLINATION    = 41.4678
RA_OF_ASC_NODE = 52.9483
ARG_OF_PERICENTER = 120.6138
MEAN_ANOMALY   = 239.5073

EPHEMERIS_TYPE = 0
CLASSIFICATION_TYPE = U
NORAD_CAT_ID   = 64786
ELEMENT_SET_NO = 999
REV_AT_EPOCH   = 28115
BSTAR          = .36373884E-3
MEAN_MOTION_DOT = .32464E-3
MEAN_MOTION_DDOT = 0

CCSDS_OMM_VERS = 2.0
CREATION_DATE  = 
ORIGINATOR     = 

OBJECT_NAME    = PROGRESS-MS 32
OBJECT_ID      = 2025-204A
CENTER_NAME    = EARTH
REF_FRAME      = TEME
TIME_SYSTEM    = UTC
MEAN_ELEMENT_THEORY = SGP/SGP4

EPOCH          = 2026-04-04T01:39:43.591392
MEAN_MOTION    = 15.48758130
ECCENTRICITY   = .00062512
INCLINATION    = 51.6326
RA_OF_ASC_NODE = 306.8840
ARG_OF_PERICENTER = 269.7954
MEAN_ANOMALY   = 90.2318

EPHEMERIS_TYPE = 0
CLASSIFICATION_TYPE = U
NORAD_CAT_ID   = 65586
ELEMENT_SET_NO = 999
REV_AT_EPOCH   = 55450
BSTAR          = .22464475E-3
MEAN_MOTION_DOT = .11847E-3
MEAN_MOTION_DDOT = 0

CCSDS_OMM_VERS = 2.0
CREATION_DATE  = 
ORIGINATOR     = 

OBJECT_NAME    = YOTSUBA-KULOVER
OBJECT_ID      = 1998-067XN
CENTER_NAME    = EARTH
REF_FRAME      = TEME
TIME_SYSTEM    = UTC
MEAN_ELEMENT_THEORY = SGP/SGP4

EPOCH          = 2026-04-03T13:42:04.150368
MEAN_MOTION    = 15.97505372
ECCENTRICITY   = .0007586
INCLINATION    = 51.6135
RA_OF_ASC_NODE = 286.9050
ARG_OF_PERICENTER = 259.6628
MEAN_ANOMALY   = 100.3526

EPHEMERIS_TYPE = 0
CLASSIFICATION_TYPE = U
NORAD_CAT_ID   = 65941
ELEMENT_SET_NO = 999
REV_AT_EPOCH   = 2745
BSTAR          = .14072E-2
MEAN_MOTION_DOT = .641591E-2
MEAN_MOTION_DDOT = .18855E-3

CCSDS_OMM_VERS = 2.0
CREATION_DATE  = 
ORIGINATOR     = 

OBJECT_NAME    = BOTAN
OBJECT_ID      = 1998-067XQ
CENTER_NAME    = EARTH
REF_FRAME      = TEME
TIME_SYSTEM    = UTC
MEAN_ELEMENT_THEORY = SGP/SGP4

EPOCH          = 2026-04-03T18:34:41.768256
MEAN_MOTION    = 15.96305411
ECCENTRICITY   = .0007868
INCLINATION    = 51.6178
RA_OF_ASC_NODE = 286.0402
ARG_OF_PERICENTER = 257.0991
MEAN_ANOMALY   = 102.9138

EPHEMERIS_TYPE = 0
CLASSIFICATION_TYPE = U
NORAD_CAT_ID   = 65943
ELEMENT_SET_NO = 999
REV_AT_EPOCH   = 2748
BSTAR          = .1491E-2
MEAN_MOTION_DOT = .636418E-2
MEAN_MOTION_DDOT = .18254E-3

CCSDS_OMM_VERS = 2.0
CREATION_DATE  = 
ORIGINATOR     = 

OBJECT_NAME    = HRC MONOBLOCK CAMERA
OBJECT_ID      = 1998-067XR
CENTER_NAME    = EARTH
REF_FRAME      = TEME
TIME_SYSTEM    = UTC
MEAN_ELEMENT_THEORY = SGP/SGP4

EPOCH          = 2026-04-03T19:38:37.237056
MEAN_MOTION    = 15.65058678
ECCENTRICITY   = .0003871
INCLINATION    = 51.6272
RA_OF_ASC_NODE = 298.4531
ARG_OF_PERICENTER = 217.8156
MEAN_ANOMALY   = 142.2568

EPHEMERIS_TYPE = 0
CLASSIFICATION_TYPE = U
NORAD_CAT_ID   = 66052
ELEMENT_SET_NO = 999
REV_AT_EPOCH   = 2632
BSTAR          = .85191409E-3
MEAN_MOTION_DOT = .85926E-3
MEAN_MOTION_DDOT = 0

