ISS (ZARYA)             
1 25544U 98067A   26094.06925453  .00011847  00000+0  22464-3 0  9996
2 25544  51.6326 306.8840 0006251 269.7954  90.2318 15.48758130560264
POISK                   
1 36086U 09060A   26094.06925453  .00011847  00000+0  22464-3 0  9994
2 36086  51.6326 306.8840 0006251 269.7954  90.2318 15.48758130559580
CSS (TIANHE)            
1 48274U 21035A   26094.17363873  .00032464  00000+0  36374-3 0  9999
2 48274  41.4678  52.9483 0003770 120.6138 239.5073 15.61988078281593
ISS (NAUKA)             
1 49044U 21066A   26094.06925453  .00011847  00000+0  22464-3 0  9992
2 49044  51.6326 306.8840 0006251 269.7954  90.2318 15.48758130559623
FREGAT DEB              
1 49271U 11037PF  26093.74034269  .00014511  00000+0  20896-1 0  9997
2 49271  51.6424 225.5290 0956481 116.8395 253.3461 12.40896795215809
CSS (WENTIAN)           
1 53239U 22085A   26094.17363873  .00032464  00000+0  36374-3 0  9992
2 53239  41.4678  52.9483 0003770 120.6138 239.5073 15.61988078281152
CSS (MENGTIAN)          
1 54216U 22143A   26094.17363873  .00032464  00000+0  36374-3 0  9993
2 54216  41.4678  52.9483 0003770 120.6138 239.5073 15.61988078281158
TIANZHOU-9              
1 64786U 25149A   26094.17363873  .00032464  00000+0  36374-3 0  9995
2 64786  41.4678  52.9483 0003770 120.6138 239.5073 15.61988078281151
PROGRESS-MS 32          
1 65586U 25204A   26094.06925453  .00011847  00000+0  22464-3 0  9999
2 65586  51.6326 306.8840 0006251 269.7954  90.2318 15.48758130554504
YOTSUBA-KULOVER         
1 65941U 98067XN  26093.57088137  .00641591  18855-3  14072-2 0  9996
2 65941  51.6135 286.9050 0007586 259.6628 100.3526 15.97505372 27451
BOTAN                   
1 65943U 98067XQ  26093.77409454  .00636418  18254-3  14910-2 0  9995
2 65943  51.6178 286.0402 0007868 257.0991 102.9138 15.96305411 27481
HRC MONOBLOCK CAMERA    
1 66052U 98067XR  26093.81848654  .00085926  00000+0  85191-3 0  9999
2 66052  51.6272 298.4531 0003871 217.8156 142.2568 15.65058678 26327
